{
  "type": "FeatureCollection",
  "features": [
    {
      "type": "Feature",
      "properties": {
        "norad_id": 33986,
        "name": "COSMOS 2251 DEB",
        "group": "cosmos-2251-debris",
        "lat": -74.0034583627769,
        "lon": -150.04108396536574,
        "alt_km": 763.0756779162793,
        "timestamp": "2025-12-12T11:38:31.805878+00:00",
        "meta_object_name": "COSMOS 2251 DEB",
        "meta_object_id": "1993-036FV",
        "meta_epoch": "2025-12-11T23:00:44.932896",
        "meta_mean_motion": 14.43198553,
        "meta_eccentricity": 0.0040391,
        "meta_inclination": 74.0368,
        "meta_ra_of_asc_node": 304.1231,
        "meta_arg_of_pericenter": 16.9522,
        "meta_mean_anomaly": 39.6423,
        "meta_ephemeris_type": 0,
        "meta_classification_type": "U",
        "meta_norad_cat_id": 33986,
        "meta_element_set_no": 999,
        "meta_rev_at_epoch": 88017,
        "meta_bstar": 0.0012792,
        "meta_mean_motion_dot": 4.319e-05,
        "meta_mean_motion_ddot": 0,
        "tle_line1": "1 33986U 93036FV  25345.95885339  .00004319  00000+0  12792-2 0  9998",
        "tle_line2": "2 33986  74.0368 304.1231 0040391  16.9522  39.6423 14.43198553880179"
      },
      "geometry": {
        "type": "Point",
        "coordinates": [
          -150.04108396536574,
          -74.0034583627769
        ]
      }
    },
    {
      "type": "Feature",
      "properties": {
        "norad_id": 33990,
        "name": "COSMOS 2251 DEB",
        "group": "cosmos-2251-debris",
        "lat": 47.859780041801145,
        "lon": -55.019422979428796,
        "alt_km": 1128.3514009472456,
        "timestamp": "2025-12-12T11:38:31.805888+00:00",
        "meta_object_name": "COSMOS 2251 DEB",
        "meta_object_id": "1993-036FZ",
        "meta_epoch": "2025-12-11T23:16:43.782816",
        "meta_mean_motion": 13.49988698,
        "meta_eccentricity": 0.0407533,
        "meta_inclination": 73.9288,
        "meta_ra_of_asc_node": 287.2303,
        "meta_arg_of_pericenter": 307.6789,
        "meta_mean_anomaly": 115.6909,
        "meta_ephemeris_type": 0,
        "meta_classification_type": "U",
        "meta_norad_cat_id": 33990,
        "meta_element_set_no": 999,
        "meta_rev_at_epoch": 82719,
        "meta_bstar": 0.0020899,
        "meta_mean_motion_dot": 2.203e-05,
        "meta_mean_motion_ddot": 0,
        "tle_line1": "1 33990U 93036FZ  25345.96995119  .00002203  00000+0  20899-2 0  9999",
        "tle_line2": "2 33990  73.9288 287.2303 0407533 307.6789 115.6909 13.49988698827193"
      },
      "geometry": {
        "type": "Point",
        "coordinates": [
          -55.019422979428796,
          47.859780041801145
        ]
      }
    },
    {
      "type": "Feature",
      "properties": {
        "norad_id": 33992,
        "name": "COSMOS 2251 DEB",
        "group": "cosmos-2251-debris",
        "lat": 68.92864204008839,
        "lon": 110.1957859927526,
        "alt_km": 630.0537149429874,
        "timestamp": "2025-12-12T11:38:31.805898+00:00",
        "meta_object_name": "COSMOS 2251 DEB",
        "meta_object_id": "1993-036GB",
        "meta_epoch": "2025-12-12T01:37:49.786176",
        "meta_mean_motion": 14.66205168,
        "meta_eccentricity": 0.0051633,
        "meta_inclination": 74.0244,
        "meta_ra_of_asc_node": 339.0324,
        "meta_arg_of_pericenter": 97.1041,
        "meta_mean_anomaly": 325.7337,
        "meta_ephemeris_type": 0,
        "meta_classification_type": "U",
        "meta_norad_cat_id": 33992,
        "meta_element_set_no": 999,
        "meta_rev_at_epoch": 89115,
        "meta_bstar": 0.0011989,
        "meta_mean_motion_dot": 6.707e-05,
        "meta_mean_motion_ddot": 0,
        "tle_line1": "1 33992U 93036GB  25346.06793734  .00006707  00000+0  11989-2 0  9995",
        "tle_line2": "2 33992  74.0244 339.0324 0051633  97.1041 325.7337 14.66205168891156"
      },
      "geometry": {
        "type": "Point",
        "coordinates": [
          110.1957859927526,
          68.92864204008839
        ]
      }
    },
    {
      "type": "Feature",
      "properties": {
        "norad_id": 33994,
        "name": "COSMOS 2251 DEB",
        "group": "cosmos-2251-debris",
        "lat": 37.71867905986131,
        "lon": -156.33301608394885,
        "alt_km": 746.8061996646566,
        "timestamp": "2025-12-12T11:38:31.805908+00:00",
        "meta_object_name": "COSMOS 2251 DEB",
        "meta_object_id": "1993-036GD",
        "meta_epoch": "2025-12-12T00:29:46.091904",
        "meta_mean_motion": 14.41213978,
        "meta_eccentricity": 0.002364,
        "meta_inclination": 74.0417,
        "meta_ra_of_asc_node": 191.7404,
        "meta_arg_of_pericenter": 326.1705,
        "meta_mean_anomaly": 184.5728,
        "meta_ephemeris_type": 0,
        "meta_classification_type": "U",
        "meta_norad_cat_id": 33994,
        "meta_element_set_no": 999,
        "meta_rev_at_epoch": 88409,
        "meta_bstar": 0.00013177,
        "meta_mean_motion_dot": 4e-06,
        "meta_mean_motion_ddot": 0,
        "tle_line1": "1 33994U 93036GD  25346.02067236  .00000400  00000+0  13177-3 0  9990",
        "tle_line2": "2 33994  74.0417 191.7404 0023640 326.1705 184.5728 14.41213978884092"
      },
      "geometry": {
        "type": "Point",
        "coordinates": [
          -156.33301608394885,
          37.71867905986131
        ]
      }
    },
    {
      "type": "Feature",
      "properties": {
        "norad_id": 33995,
        "name": "COSMOS 2251 DEB",
        "group": "cosmos-2251-debris",
        "lat": 55.364838453172766,
        "lon": -84.62002199909196,
        "alt_km": 728.235215463742,
        "timestamp": "2025-12-12T11:38:31.805918+00:00",
        "meta_object_name": "COSMOS 2251 DEB",
        "meta_object_id": "1993-036GE",
        "meta_epoch": "2025-12-11T09:58:47.980704",
        "meta_mean_motion": 14.34763162,
        "meta_eccentricity": 0.00602227,
        "meta_inclination": 74.0611,
        "meta_ra_of_asc_node": 121.7736,
        "meta_arg_of_pericenter": 136.5517,
        "meta_mean_anomaly": 224.0405,
        "meta_ephemeris_type": 0,
        "meta_classification_type": "U",
        "meta_norad_cat_id": 33995,
        "meta_element_set_no": 999,
        "meta_rev_at_epoch": 87500,
        "meta_bstar": 0.0018313338,
        "meta_mean_motion_dot": 5.277e-05,
        "meta_mean_motion_ddot": 0,
        "tle_line1": "1 33995U 93036GE  25345.41583311  .00005277  00000+0  18313-2 0  9993",
        "tle_line2": "2 33995  74.0611 121.7736 0060222 136.5517 224.0405 14.34763162875001"
      },
      "geometry": {
        "type": "Point",
        "coordinates": [
          -84.62002199909196,
          55.364838453172766
        ]
      }
    },
    {
      "type": "Feature",
      "properties": {
        "norad_id": 33999,
        "name": "COSMOS 2251 DEB",
        "group": "cosmos-2251-debris",
        "lat": -52.01224020778386,
        "lon": 72.96350277947721,
        "alt_km": 634.8829621202322,
        "timestamp": "2025-12-12T11:38:31.805928+00:00",
        "meta_object_name": "COSMOS 2251 DEB",
        "meta_object_id": "1993-036GJ",
        "meta_epoch": "2025-12-12T02:29:48.274080",
        "meta_mean_motion": 14.83343057,
        "meta_eccentricity": 0.0044516,
        "meta_inclination": 73.9187,
        "meta_ra_of_asc_node": 232.0448,
        "meta_arg_of_pericenter": 127.8339,
        "meta_mean_anomaly": 232.6881,
        "meta_ephemeris_type": 0,
        "meta_classification_type": "U",
        "meta_norad_cat_id": 33999,
        "meta_element_set_no": 999,
        "meta_rev_at_epoch": 89241,
        "meta_bstar": 0.0021168,
        "meta_mean_motion_dot": 0.00017663,
        "meta_mean_motion_ddot": 0,
        "tle_line1": "1 33999U 93036GJ  25346.10403095  .00017663  00000+0  21168-2 0  9998",
        "tle_line2": "2 33999  73.9187 232.0448 0044516 127.8339 232.6881 14.83343057892418"
      },
      "geometry": {
        "type": "Point",
        "coordinates": [
          72.96350277947721,
          -52.01224020778386
        ]
      }
    },
    {
      "type": "Feature",
      "properties": {
        "norad_id": 34001,
        "name": "COSMOS 2251 DEB",
        "group": "cosmos-2251-debris",
        "lat": -73.61515574089218,
        "lon": -154.69280007534678,
        "alt_km": 774.8753950934297,
        "timestamp": "2025-12-12T11:38:31.805938+00:00",
        "meta_object_name": "COSMOS 2251 DEB",
        "meta_object_id": "1993-036GL",
        "meta_epoch": "2025-12-11T22:59:58.975872",
        "meta_mean_motion": 14.37097025,
        "meta_eccentricity": 0.0019932,
        "meta_inclination": 74.0387,
        "meta_ra_of_asc_node": 283.024,
        "meta_arg_of_pericenter": 4.1697,
        "meta_mean_anomaly": 65.6059,
        "meta_ephemeris_type": 0,
        "meta_classification_type": "U",
        "meta_norad_cat_id": 34001,
        "meta_element_set_no": 999,
        "meta_rev_at_epoch": 88135,
        "meta_bstar": 0.00033644,
        "meta_mean_motion_dot": 9.75e-06,
        "meta_mean_motion_ddot": 0,
        "tle_line1": "1 34001U 93036GL  25345.95832148  .00000975  00000+0  33644-3 0  9991",
        "tle_line2": "2 34001  74.0387 283.0240 0019932   4.1697  65.6059 14.37097025881353"
      },
      "geometry": {
        "type": "Point",
        "coordinates": [
          -154.69280007534678,
          -73.61515574089218
        ]
      }
    }
  ]
}